ORBCOMM-X               
1 21576U 91050C   24258.75819316  .00001674  00000+0  51570-3 0  9995
2 21576  98.3816 324.5147 0002601 310.1578  49.9384 14.42735587742396
ORBCOMM FM01            
1 23545U 95017A   24258.80489183  .00019879  00000+0  24576-2 0  9992
2 23545  69.9670  37.4888 0004649 358.0505   2.0627 14.82778760571926
ORBCOMM FM02            
1 23546U 95017B   24258.86282460  .00017384  00000+0  21659-2 0  9996
2 23546  69.9675  56.9630 0006209   0.2880 359.8273 14.82489331571225
ORBCOMM FM08            
1 25112U 97084A   24259.13309891  .00005310  00000+0  15937-2 0  9990
2 25112  45.0126 246.2710 0009010 302.2897  57.7080 14.43540062401768
ORBCOMM FM10            
1 25113U 97084B   24259.01101886  .00005503  00000+0  16544-2 0  9991
2 25113  45.0141 248.8286 0006526 279.6339  80.3774 14.43420307401737
ORBCOMM FM11            
1 25114U 97084C   24258.41888156  .00007467  00000+0  22367-2 0  9998
2 25114  45.0125 251.8473 0007354 276.4215  83.5798 14.43249277401602
ORBCOMM FM12            
1 25115U 97084D   24259.14357486  .00002295  00000+0  71815-3 0  9994
2 25115  45.0130 248.1250 0006418 281.9704  78.0427 14.43215256401748
ORBCOMM FM09            
1 25116U 97084E   24259.15814408  .00004543  00000+0  13803-2 0  9998
2 25116  45.0135 248.7812 0007161 267.2741  92.7290 14.43169466401740
